IRIDIUM 112             
1 41925U 17003J   24099.93516425  .00000284  00000+0  94170-4 0  9999
2 41925  86.3953  62.3097 0002216  92.9959 267.1490 14.34218665378713
IRIDIUM 111             
1 41926U 17003K   24099.99224654  .00000267  00000+0  88345-4 0  9994
2 41926  86.3955  62.3387 0002493  91.1654 268.9828 14.34216970378708
IRIDIUM 113             
1 42803U 17039A   24099.97223038  .00000113  00000+0  33127-4 0  9999
2 42803  86.3920 296.1400 0002227  93.7242 266.4209 14.34214648356638
IRIDIUM 123             
1 42804U 17039B   24099.87415263  .00000205  00000+0  66172-4 0  9990
2 42804  86.3973 327.6931 0002271  89.5505 270.5951 14.34219875355388
IRIDIUM 120             
1 42805U 17039C   24099.96588996  .00000112  00000+0  32779-4 0  9998
2 42805  86.3910 296.0287 0002139  88.0424 272.1016 14.34219041356623
IRIDIUM 115             
1 42806U 17039D   24100.08062704  .00000152  00000+0  39301-4 0  9991
2 42806  86.4448 295.9951 0002255  94.7761 265.3697 14.43275046359005
IRIDIUM 118             
1 42807U 17039E   24099.90587313  .00000221  00000+0  71899-4 0  9993
2 42807  86.3973 327.6813 0002050  88.1636 271.9795 14.34219512355384
IRIDIUM 117             
1 42808U 17039F   24099.99466314  .00000303  00000+0  10106-3 0  9994
2 42808  86.3972 327.6091 0002377  87.8259 272.3209 14.34218906355427
